MERIDIAN 10             
1 52145U 22030A   22108.10209095 -.00006891  70516-4  52658-1 0  9998
2 52145  62.9062 320.5502 8256794 260.2774 288.2060  1.99077553   529
FREGAT R/B              
1 52146U 22030B   22109.57114146 -.00000824  00000+0 -26315-2 0  9992
2 52146  62.8014 318.0201 7288372 269.7635  14.5863  2.00076280   597
IHI-SAT                 
1 52147U 98067TJ  22111.54289214  .00040179  00000+0  65163-3 0  9995
2 52147  51.6406 256.8241 0003129  67.1719 292.9601 15.52347432  4466
KITSUNE                 
1 52148U 98067TK  22111.56228622  .00025911  00000+0  43722-3 0  9998
2 52148  51.6440 256.8479 0003332  59.3733 349.1506 15.51464636  4401
TK-2                    
1 52150U 22031A   22111.54891879  .00001760  00000+0  18563-3 0  9998
2 52150  97.7983 284.6878 0013695 180.4466 179.6742 14.90520663  3447
PUJIANG 2 (PJ-2)        
1 52151U 22031B   22111.47926701 -.00000038  00000+0  17989-5 0  9995
2 52151  97.7846 284.5929 0012381 185.6783 174.4324 14.90683891  3433
CZ-6A R/B               
1 52152U 22031C   22111.50801698  .00001306  00000+0  11641-3 0  9992
2 52152  97.7861 284.8373 0026981 289.0495  70.7805 14.97530721  3451
2022-032A               
1 52153U 22032A   22111.43910817  .00001464  00000+0  15695-3 0  9998
2 52153  97.7943 161.3122 0011854 181.9490 178.1704 14.90117714  3336
2022-032C               
1 52155U 22032C   22111.41597659  .00000783  00000+0  83094-4 0  9995
2 52155  97.8006 161.3599 0015727 211.6709 148.3576 14.91820118  3329
2022-032D               
1 52156U 22032D   22111.54945882  .00001325  00000+0  13646-3 0  9993
2 52156  97.7876 161.4571 0015647 211.4943 148.5350 14.91887952  3358
OMNI-L1                 
1 52157U 22033A   22111.47789782  .00001109  00000+0  17489-3 0  9991
2 52157  97.9478 194.4280 0013237 187.6627 172.4381 14.74296775  2939
GNOMES-3                
1 52158U 22033B   22111.47051660  .00001353  00000+0  20915-3 0  9998
2 52158  97.9487 194.4402 0012555 198.3444 161.7313 14.74851967  2930
2022-033C               
1 52159U 22033C   22111.46703832  .00000456  00000+0  75314-4 0  9990
2 52159  97.9774 194.4913 0007386 209.2118 150.8679 14.74982403  2937
ALFACRUX                
1 52160U 22033D   22111.47234613  .00010186  00000+0  46806-3 0  9993
2 52160  97.3883 193.9341 0009501 222.1724 137.8781 15.20525065  3019
ARCSAT-1                
1 52161U 22033E   22111.47229590  .00005454  00000+0  25284-3 0  9991
2 52161  97.3872 193.9288 0009279 218.0200 142.0382 15.20442609  3010
LYNK TOWER 1            
1 52162U 22033F   22111.53140563  .00004061  00000+0  18636-3 0  9997
2 52162  97.3864 193.9969 0010122 201.3679 158.7135 15.20939172  3029
ION SCV-005             
1 52163U 22033G   22111.53226251  .00004429  00000+0  20583-3 0  9999
2 52163  97.5345 194.0406 0012063 192.2736 167.8207 15.20453165  3026
SPACEBEE-136            
1 52164U 22033H   22111.52853679  .00015989  00000+0  71483-3 0  9997
2 52164  97.3812 193.9874 0009483 208.8597 151.2116 15.21358063  3020
HAWK-4B                 
1 52165U 22033J   22111.52975511  .00010489  00000+0  47100-3 0  9997
2 52165  97.3864 194.0037 0010057 210.4359 149.6295 15.21306797  3021
SPACEBEE-138            
1 52166U 22033K   22111.52906390  .00015823  00000+0  70826-3 0  9995
2 52166  97.3833 193.9920 0011126 200.7930 159.2855 15.21303790  3021
HAWK-4A                 
1 52167U 22033L   22111.53150605  .00006483  00000+0  29487-3 0  9996
2 52167  97.3827 193.9967 0009958 205.9356 154.1382 15.21020522  3023
NUSAT-23 (ANNIE MAUNDER)
1 52168U 22033M   22111.53362427  .00007029  00000+0  32010-3 0  9997
2 52168  97.3850 193.9907 0009534 206.4079 153.6672 15.20953332  3021
MP42                    
1 52169U 22033N   22111.52602566  .00006522  00000+0  29328-3 0  9993
2 52169  97.3865 194.0100 0011844 205.7012 154.3636 15.21395897  3026
HAWK-4C                 
1 52170U 22033P   22111.46109587  .00004494  00000+0  20487-3 0  9996
2 52170  97.3862 193.9390 0012101 197.9023 162.1788 15.21090727  3013
NUSAT-25 (MARIA TELKES) 
1 52171U 22033Q   22111.52400086  .00007755  00000+0  34522-3 0  9990
2 52171  97.3867 194.0109 0012452 200.5512 159.5225 15.21668664  3020
NUSAT-27 (SALLY RIDE)   
1 52172U 22033R   22111.45693895  .00005977  00000+0  26614-3 0  9992
2 52172  97.3854 193.9411 0012198 196.0158 164.0694 15.21759632  3019
SHAKUNTALA              
1 52173U 22033S   22111.46532672  .00010766  00000+0  47374-3 0  9997
2 52173  97.3889 193.9729 0012554 202.0828 219.2312 15.21966004  3011
2022-033T               
1 52174U 22033T   22111.45234777  .00011598  00000+0  50821-3 0  9997
2 52174  97.3857 193.9491 0013501 194.6124 165.4723 15.22078836  3017
BDSAT                   
1 52175U 22033U   22111.18900585  .00010709  00000+0  46917-3 0  9999
2 52175  97.3883 193.7019 0013769 197.5805 162.4956 15.22103235  2976
SPACEBEE-130            
1 52176U 22033V   22111.46484708  .00016452  00000+0  73869-3 0  9992
2 52176  97.3822 193.9213 0007697 200.9074 159.1848 15.21219704  3015
SPACEBEE-139            
1 52177U 22033W   22111.46591321  .00016598  00000+0  74693-3 0  9990
2 52177  97.3831 193.9245 0010494 206.1759 153.8947 15.21117361  3015
NUSAT-24 (KALPANA CHAW*)
1 52178U 22033X   22111.20457960  .00000831  00000+0  40642-4 0  9994
2 52178  97.3885 193.6797 0009914 211.6169 148.4472 15.20911634  2976
SPACEBEE-129            
1 52179U 22033Y   22111.20336190  .00011825  00000+0  53519-3 0  9997
2 52179  97.3826 193.6626 0009021 209.5967 150.4759 15.21012654  2970
SPACEBEE-134            
1 52180U 22033Z   22111.46563046  .00014608  00000+0  65816-3 0  9994
2 52180  97.3829 193.9235 0009339 208.5007 151.5719 15.21115780  3018
SPACEBEE-131            
1 52181U 22033AA  22111.53200395  .00014603  00000+0  65874-3 0  9997
2 52181  97.3827 193.9861 0009127 209.7065 150.3654 15.21075115  3027
SPACEBEE-128            
1 52182U 22033AB  22111.46646655  .00013005  00000+0  58771-3 0  9996
2 52182  97.3837 193.9249 0009163 207.7740 152.3008 15.21038622  3013
SPACEBEE-133            
1 52183U 22033AC  22111.46602744  .00014389  00000+0  64887-3 0  9999
2 52183  97.3827 193.9222 0009175 209.6709 150.4008 15.21090168  3004
2022-033AD              
1 52184U 22033AD  22111.53328439  .00006742  00000+0  30961-3 0  9994
2 52184  97.3864 193.9952 0009641 204.1418 155.9366 15.20677494  3022
SPACEBEE-132            
1 52185U 22033AE  22111.46509420  .00014986  00000+0  67412-3 0  9998
2 52185  97.3832 193.9260 0008626 221.8735 138.1842 15.21169209  3012
SPACEBEE-137            
1 52186U 22033AF  22111.46531232  .00014318  00000+0  64477-3 0  9992
2 52186  97.3832 193.9249 0009490 208.5910 151.4806 15.21135697  3019
SPACEBEE-135            
1 52187U 22033AG  22111.46507968  .00015162  00000+0  68195-3 0  9991
2 52187  97.3838 193.9267 0008927 204.9546 155.1259 15.21168613  3012
PLANTSAT                
1 52188U 22033AH  22111.45659968  .00010205  00000+0  44714-3 0  9993
2 52188  97.3863 193.9457 0005311 219.8000 140.2847 15.22183697  3014
KSF2 C                  
1 52189U 22033AJ  22111.46547771  .00011101  00000+0  50182-3 0  9995
2 52189  97.3792 193.9246 0010448 200.0777 160.0049 15.21055849  3012
KSF2 D                  
1 52190U 22033AK  22111.46547029  .00011831  00000+0  53456-3 0  9990
2 52190  97.3797 193.9257 0010308 200.1805 159.9024 15.21057970  3016
SUCHAI-3                
1 52191U 22033AL  22111.46994104  .00009186  00000+0  42621-3 0  9993
2 52191  97.3964 193.9344 0011649 182.5046 177.6133 15.20200764  3017
2022-034A               
1 52195U 22034A   22111.62062209  .00157838  00000+0  27998-2 0  9995
2 52195  53.0023 251.5049 0013442 354.8896   5.1980 15.49108090  2956
GLOBAL-18               
1 52196U 22034B   22111.51671219  .00017812  00000+0  38342-3 0  9994
2 52196  53.0065 252.2877 0009379 358.0717   2.0265 15.44685416  2939
GLOBAL-20               
1 52197U 22034C   22111.51006986  .00018487  00000+0  39012-3 0  9992
2 52197  53.0048 252.2425 0010340 346.7006  13.3772 15.45235045  2933
GAOFEN-3 03             
1 52200U 22035A   22110.14246713  .00000058  00000+0  30920-4 0  9995
2 52200  98.4084 118.8943 0002136 104.5543 333.6281 14.42215195  1902
CZ-4C R/B               
1 52201U 22035B   22111.59837724  .00000714  00000+0  11580-3 0  9993
2 52201  98.3989 120.8994 0111950   5.2008 355.0328 14.70559759  2148
COSMOS 2554             
1 52202U 22036A   22111.57660295 -.00000002  00000+0  52564-4 0  9999
2 52202  67.1502 317.2336 0006950 264.7687  95.2630 13.96673843  2028
SL-4 R/B                
1 52203U 22036B   22111.60925439  .00142824  83655-5  73095-3 0  9990
2 52203  67.1350 311.1943 0441622  79.3683 285.6828 15.07925803  2127
AXIOM-1                 
1 52204U 22037A   22111.52540476  .00008917  00000+0  16303-3 0  9997
2 52204  51.6419 257.2124 0005149  42.3719  73.4655 15.50173823336398
CHINASAT 6D             
1 52255U 22038A   22106.17739715 -.00000347  00000+0  00000+0 0  9998
2 52255  28.4631  20.6165 7288754 179.6852 183.1434  2.28095705    28
CZ-3B R/B               
1 52256U 22038B   22106.98508792 -.00001057  12175-5  00000+0 0  9998
2 52256  28.4754  20.2913 7219492 179.3584 182.5406  2.38783343    41
DAQI 1                  
1 52257U 22039A   22111.49439311 -.00003151  00000+0 -68184-3 0  9999
2 52257  98.1331  53.2647 0000540 212.0535 148.0418 14.57655162   831
CZ-4C R/B               
1 52258U 22039B   22111.44521284  .00002432  00000+0  21194-3 0  9995
2 52258  98.1636  53.5316 0140123  43.9233 317.3022 14.90621773   845
